1 28915U 05050A   06283.81773064  .00000014  00000-0  10000-3 0  9999
2 28915 064.8580 196.1352 0008936 332.0075 163.2194 02.13102039  6172
1 28915U 05050A   06284.30070580  .00000008  00000-0  10000-3 0  9990
2 28915 064.8580 196.1188 0008889 332.3896 173.3577 02.13102015  6182
1 28915U 05050A   06284.82530110 +.00000001 +00000-0 +10000-3 0  9990
2 28915 064.8580 196.1020 0008879 331.8324 216.3675 02.13102027006197
1 28915U 05050A   06285.80131387 -.00000013 +00000-0 +10000-3 0  9996
2 28915 064.8579 196.0699 0008877 332.2205 244.7414 02.13102013006211
1 28915U 05050A   06286.17479361 -.00000018  00000-0  10000-3 0  9999
2 28915 064.8578 196.0577 0008867 332.3457 171.1365 02.13102010  6220
1 28915U 05050A   06286.95343924 -.00000027 +00000-0 +10000-3 0  9990
2 28915 064.8577 196.0320 0008888 333.2933 047.5370 02.13101996006243
1 28915U 05050A   06287.90505510 -.00000034  00000-0  10000-3 0  9995
2 28915 064.8576 196.0007 0008876 333.4073 057.4692 02.13101990  6261
1 28915U 05050A   06288.91200528 -.00000036  00000-0  10000-3 0  9990
2 28915 064.8577 195.9671 0008838 333.6168 109.7563 02.13101977  6287
1 28915U 05050A   06288.91200528 -.00000036 +00000-0 +10000-3 0  9990
2 28915 064.8577 195.9671 0008838 333.6168 109.7563 02.13101977006287
1 28915U 05050A   06290.37138259 -.00000027  00000-0  10000-3 0  9994
2 28915 064.8578 195.9187 0008860 334.0208 148.9354 02.13101974  6319
1 28915U 05050A   06290.72508478 -.00000023 +00000-0 +10000-3 0  9993
2 28915 064.8578 195.9070 0008860 334.0765 060.2275 02.13101972006325
1 28915U 05050A   06291.79183237 -.00000009  00000-0  10000-3 0  9997
2 28915 064.8578 195.8720 0008885 334.8108 157.8639 02.13101967  6345
1 28915U 05050A   06291.79183237 -.00000009 +00000-0 +10000-3 0  9997
2 28915 064.8578 195.8720 0008885 334.8108 157.8639 02.13101967006345
1 28915U 05050A   06292.27810705 -.00000002 +00000-0 +10000-3 0  9991
2 28915 064.8578 195.8560 0008899 335.0016 170.7258 02.13101962006350
1 28915U 05050A   06293.17841505  .00000011  00000-0  10000-3 0  9992
2 28915 064.8579 195.8262 0008900 335.0724 141.3401 02.13101964  6377
1 28915U 05050A   06293.68754163  .00000019  00000-0  10000-3 0  9999
2 28915 064.8575 195.8104 0008881 337.3657 169.6289 02.13101976  6387
1 28915U 05050A   06294.63158135 +.00000030 +00000-0 +10000-3 0  9995
2 28915 064.8575 195.7792 0008871 337.4352 173.7939 02.13101973006409
1 28915U 05050A   06294.93087284  .00000033  00000-0  10000-3 0  9997
2 28915 064.8575 195.7693 0008870 337.4554 043.3798 02.13101973  6418
1 28915U 05050A   06295.88250506 +.00000041 +00000-0 +10000-3 0  9990
2 28915 064.8574 195.7380 0008866 337.6514 053.2429 02.13101972006435
1 28915U 05050A   06296.04939815  .00000041  00000-0  10000-3 0  9996
2 28915 064.8574 195.7324 0008845 337.7585 181.1708 02.13101977  6435
1 28915U 05050A   06296.82821166 +.00000044 +00000-0 +10000-3 0  9994
2 28915 064.8574 195.7067 0008851 338.1046 058.3037 02.13101989006458
1 28915U 05050A   06297.43178154  .00000045  00000-0  10000-3 0  9995
2 28915 064.8574 195.6867 0008840 338.2696 161.1773 02.13102002  6463
1 28915U 05050A   06297.76808412 +.00000045 +00000-0 +10000-3 0  9998
2 28915 064.8574 195.6756 0008840 338.2828 059.1639 02.13102001006474
1 28915U 05050A   06298.87649983  .00000042  00000-0  10000-3 0  9994
2 28915 064.8573 195.6392 0008827 338.4629 189.3224 02.13102012  6495
1 28915U 05050A   06298.87649983 +.00000042 +00000-0 +10000-3 0  9994
2 28915 064.8573 195.6392 0008827 338.4629 189.3224 02.13102012006495
1 28915U 05050A   06299.32664442  .00000040  00000-0  10000-3 0  9990
2 28915 064.8574 195.6242 0008828 338.5572 174.5637 02.13102016  6509
1 28915U 05050A   06299.63160319 +.00000038 +00000-0 +10000-3 0  9995
2 28915 064.8574 195.6142 0008833 338.6629 048.4115 02.13102015006518
1 28915U 05050A   06300.77946942  .00000031  00000-0  10000-3 0  9990
2 28915 064.8573 195.5764 0008735 338.4980 209.1823 02.13102042  6539
1 28915U 05050A   06300.77946942 +.00000031 +00000-0 +10000-3 0  9990
2 28915 064.8573 195.5764 0008735 338.4980 209.1823 02.13102042006539
1 28915U 05050A   06301.23582637  .00000029  00000-0  10000-3 0  9996
2 28915 064.8573 195.5614 0008697 338.5411 199.2413 02.13102051  6545
1 28915U 05050A   06301.69417731 +.00000026 +00000-0 +10000-3 0  9995
2 28915 064.8572 195.5463 0008680 338.5761 190.8377 02.13102057006559
1 28915U 05050A   06302.69101740  .00000022  00000-0  10000-3 0  9992
2 28915 064.8572 195.5135 0008659 338.5113 235.6445 02.13102065  6577
1 28915U 05050A   06303.85994081  .00000022  00000-0  10000-3 0  9999
2 28915 064.8572 195.4749 0008682 339.6331 051.2790 02.13102062  6603
1 28915U 05050A   06304.81196271 +.00000026 +00000-0 +10000-3 0  9995
2 28915 064.8571 195.4436 0008660 339.8494 061.4208 02.13102063006623
1 28915U 05050A   06304.87256472  .00000026  00000-0  10000-3 0  9991
2 28915 064.8571 195.4416 0008656 339.8710 107.8909 02.13102062  6629
1 28915U 05050A   06305.74550610 +.00000033 +00000-0 +10000-3 0  9997
2 28915 064.8572 195.4128 0008641 339.9272 057.5253 02.13102065006646
1 28915U 05050A   06306.31111528  .00000038  00000-0  10000-3 0  9997
2 28915 064.8571 195.3941 0008626 340.0232 131.3453 02.13102070  6659
1 28915U 05050A   06306.67997287 +.00000041 +00000-0 +10000-3 0  9994
2 28915 064.8571 195.3820 0008625 340.0372 054.3061 02.13102070006669
1 28915U 05050A   06307.60904186  .00000049  00000-0  10000-3 0  9992
2 28915 064.8571 195.3514 0008598 340.0784 047.0151 02.13102083  6680
1 28915U 05050A   06308.27200078 +.00000053 +00000-0 +10000-3 0  9990
2 28915 064.8572 195.3296 0008604 340.3172 195.3747 02.13102074006699
1 28915U 05050A   06309.21902106  .00000056  00000-0  10000-3 0  9999
2 28915 064.8572 195.2985 0008602 340.5769 201.6353 02.13102063  6710
1 28915U 05050A   06309.61609866 +.00000056 +00000-0 +10000-3 0  9990
2 28915 064.8572 195.2854 0008599 340.5602 146.2762 02.13102061006723
1 28915U 05050A   06310.88576074  .00000048  00000-0  10000-3 0  9996
2 28915 064.8573 195.2435 0008619 341.1286 039.7478 02.13102059  6757
1 28915U 05050A   06311.83739236 +.00000038 +00000-0 +10000-3 0  9992
2 28915 064.8573 195.2122 0008612 341.1371 049.7985 02.13102063006779
1 28915U 05050A   06312.78782362  .00000025  00000-0  10000-3 0  9991
2 28915 064.8572 195.1808 0008589 341.2868 058.7869 02.13102064  6797
1 28915U 05050A   06313.72295737 +.00000014 +00000-0 +10000-3 0  9999
2 28915 064.8572 195.1500 0008585 341.7332 055.7412 02.13102045006816
1 28915U 05050A   06314.17530435  .00000009  00000-0  10000-3 0  9990
2 28915 064.8572 195.1351 0008555 341.6335 042.8657 02.13102036  6828
1 28915U 05050A   06314.78050862 +.00000004 +00000-0 +10000-3 0  9993
2 28915 064.8571 195.1152 0008557 341.7467 147.0436 02.13102028006830
1 28915U 05050A   06315.20583297  .00000002  00000-0  10000-3 0  9992
2 28915 064.8571 195.1011 0008537 341.9281 113.1556 02.13102016  6843
1 28915U 05050A   06315.77469161 +.00000001 +00000-0 +10000-3 0  9996
2 28915 064.8571 195.0823 0008496 342.0056 189.4862 02.13102000006859
1 28915U 05050A   06316.51889443  .00000003  00000-0  10000-3 0  9990
2 28915 064.8569 195.0579 0008467 342.4845 039.9324 02.13101976  6877
1 28915U 05050A   06316.67553257 +.00000004 +00000-0 +10000-3 0  9999
2 28915 064.8569 195.0528 0008501 342.8068 159.7770 02.13101975006876
1 28915U 05050A   06317.19946325 +.00000007 +00000-0 +10000-3 0  9992
2 28915 064.8569 195.0357 0008468 342.7375 201.7878 02.13101970006881
1 28915U 05050A   06318.09239014  .00000017  00000-0  10000-3 0  9993
2 28915 064.8569 195.0061 0008482 342.8905 166.6571 02.13101967  6907
1 28915U 05050A   06318.86318208 +.00000028 +00000-0 +10000-3 0  9993
2 28915 064.8569 194.9809 0008463 342.8641 038.0086 02.13101971006921
1 28915U 05050A   06319.58045061  .00000039  00000-0  10000-3 0  9999
2 28915 064.8569 194.9572 0008450 342.8575 228.2791 02.13101975  6931
1 28915U 05050A   06319.81480995 +.00000043 +00000-0 +10000-3 0  9999
2 28915 064.8569 194.9495 0008452 342.9811 047.9475 02.13101972006944
1 28915U 05050A   06320.76052318  .00000057  00000-0  10000-3 0  9994
2 28915 064.8570 194.9182 0008458 343.0715 053.3751 02.13101967  6964
1 28915U 05050A   06320.76052318 +.00000057 +00000-0 +10000-3 0  9994
2 28915 064.8570 194.9182 0008458 343.0715 053.3751 02.13101967006964
1 28915U 05050A   06321.25154995 +.00000064 +00000-0 +10000-3 0  9991
2 28915 064.8569 194.9018 0008459 343.2132 069.9317 02.13101964006975
1 28915U 05050A   06321.79134073  .00000071  00000-0  10000-3 0  9993
2 28915 064.8569 194.8840 0008464 343.2180 124.0357 02.13101963  6983
1 28915U 05050A   06322.81617318  .00000081  00000-0  10000-3 0  9996
2 28915 064.8570 194.8504 0008474 343.6882 189.7819 02.13101980  7000
1 28915U 05050A   06323.77050865 +.00000087 +00000-0 +10000-3 0  9996
2 28915 064.8568 194.8189 0008459 344.2171 201.3862 02.13101988007026
1 28915U 05050A   06324.18783394  .00000088  00000-0  10000-3 0  9993
2 28915 064.8568 194.8052 0008461 344.3402 161.4210 02.13101994  7037
1 28915U 05050A   06324.24617466 +.00000089 +00000-0 +10000-3 0  9997
2 28915 064.8568 194.8033 0008446 344.3710 206.1475 02.13101999007036
1 28915U 05050A   06325.66865076  .00000088  00000-0  10000-3 0  9995
2 28915 064.8568 194.7563 0008394 344.3620 217.4318 02.13102007  7060
1 28915U 05050A   06326.10089444 +.00000087 +00000-0 +10000-3 0  9991
2 28915 064.8567 194.7427 0008385 347.1016 186.2960 02.13102211007072
1 28915U 05050A   06327.03372008  .00000083  00000-0  10000-3 0  9991
2 28915 064.8567 194.7113 0008383 344.6962 184.3324 02.13102021  7098
1 28915U 05050A   06327.79227119  .00000079  00000-0  10000-3 0  9991
2 28915 064.8565 194.6868 0008402 345.0969 045.8647 02.13102014  7110
1 28915U 05050A   06328.82048604  .00000074  00000-0  10000-3 0  9991
2 28915 064.8568 194.6522 0008341 344.9046 114.8697 02.13102031  7139
1 28915U 05050A   06329.67781383 +.00000071 +00000-0 +10000-3 0  9990
2 28915 064.8569 194.6238 0008294 345.1800 052.3072 02.13102043007150
